satname,norad_id,inclination_deg,eccentricity,mean_motion_rev_per_day,perigee_km,apogee_km,l1,l2
STARLINK-1304,45376,53.0552,0.0001398,15.06394319,546.2608032772541,548.1971356023096,1 45376U 20019S   25311.51790940  .00002836  00000+0  20923-3 0  9991,2 45376  53.0552 355.0666 0001398  94.5612 265.5536 15.06394319311318
STARLINK-1305,45377,53.0537,0.0002117,15.3207151,468.18309418094395,471.0824399003086,1 45377U 20019T   25311.40916058  .00051379  00000+0  16368-2 0  9993,2 45377  53.0537 352.0292 0002117  41.2040 318.9120 15.32071510311358
STARLINK-1319,45379,53.0603,0.0001159,15.35752369,457.89427659645025,459.4790523218717,1 45379U 20019V   25311.91668980  .01123744  00000+0  29052-1 0  9999,2 45379  53.0603 351.8196 0001159  81.0143 213.9556 15.35752369  5735
STARLINK-1266,45383,53.0547,0.0001745,15.06409618,545.9736121308488,548.3905484898769,1 45383U 20019Z   25311.80357329  .00005765  00000+0  40552-3 0  9995,2 45383  53.0547 333.7890 0001745  81.8212 278.2975 15.06409618311635
STARLINK-1267,45384,53.0549,0.0001292,15.06398437,546.321592659704,548.1111039649086,1 45384U 20019AA  25311.78890455  .00001679  00000+0  13157-3 0  9996,2 45384  53.0549 334.5108 0001292  92.1433 267.9704 15.06398437311626
STARLINK-1272,45386,53.0541,0.0003569,15.34710828,459.3383835976301,464.22071603088807,1 45386U 20019AC  25311.79147385  .00092409  00000+0  26855-2 0  9995,2 45386  53.0541 330.2839 0003569  33.6135 326.5092 15.34710828311683
STARLINK-1274,45387,53.0348,0.0002947,15.29754227,474.52631525311335,478.56646564344373,1 45387U 20019AD  25311.45118323  .00080634  00000+0  27422-2 0  9997,2 45387  53.0348 319.4918 0002947 300.4011  59.6697 15.29754227311807
STARLINK-1280,45388,53.0545,0.0003869,15.40445009,442.15518796609376,447.43477273248845,1 45388U 20019AE  25311.91668980  .00126707  00000+0  30409-2 0  9999,2 45388  53.0545 348.8969 0003869  17.0038  53.0449 15.40445009  5545
STARLINK-1283,45389,53.0547,0.0004964,15.31090206,469.1576775112335,475.9590478673117,1 45389U 20019AF  25311.45202538  .00077162  00000+0  25192-2 0  9995,2 45389  53.0547 330.6376 0004964  29.5949 330.5331 15.31090206311655
STARLINK-1284,45390,53.0546,0.000135,15.0640236,546.269403808763,548.1392459664821,1 45390U 20019AG  25311.47551949  .00004915  00000+0  34861-3 0  9992,2 45390  53.0546 335.2623 0001350  89.2924 270.8219 15.06402360311587
STARLINK-1292,45394,53.0428,0.0006541,16.01658802,265.47620818014093,274.1730715974436,1 45394U 20019AL  25311.15166683  .00801385  31739-3  13922-2 0  9995,2 45394  53.0428 282.4254 0006541  52.5154 307.6470 16.01658802312037
STARLINK-1297,45395,53.0548,0.0001402,15.06391473,546.266754556611,548.2086296202724,1 45395U 20019AM  25311.77777213  .00000942  00000+0  82152-4 0  9997,2 45395  53.0548 333.9018 0001402  88.7323 271.3827 15.06391473310810
STARLINK-1307,45397,53.0549,0.000169,15.06375099,546.1174801639727,548.4582737723886,1 45397U 20019AP  25311.77040978  .00000998  00000+0  85938-4 0  9996,2 45397  53.0549 333.9333 0001690  81.2393 278.8788 15.06375099311452
STARLINK-1312,45398,53.0361,0.0003271,16.13761244,234.38159291673765,238.70891804827443,1 45398U 20019AQ  25311.30962554  .01462426  16177-2  12023-2 0  9996,2 45398  53.0361 280.3735 0003271  86.3848 273.7561 16.13761244312098
STARLINK-1255,45399,53.048,0.0003291,15.3116844,470.0705192722762,474.5794933648349,1 45399U 20019AR  25311.72163421  .00095283  00000+0  30935-2 0  9998,2 45399  53.0480 320.4697 0003291  40.8436 319.2810 15.31168440311623
STARLINK-1260,45404,53.055,0.000148,15.06402004,546.18046529615,548.2303666512789,1 45404U 20019AW  25311.77131829  .00003110  00000+0  22757-3 0  9999,2 45404  53.0550 323.9292 0001480  93.2696 266.8463 15.06402004311489
STARLINK-1263,45405,53.0548,0.0001501,15.06394413,546.1891839527561,548.2681787302945,1 45405U 20019AX  25311.35848889  .00000585  00000+0  58168-4 0  9994,2 45405  53.0548 325.7816 0001501  68.3915 291.7234 15.06394413311421
STARLINK-1265,45406,53.056,0.0001045,15.06395956,546.5002520240532,547.9476524630709,1 45406U 20019AY  25311.76392784 -.00007384  00000+0 -47741-3 0  9998,2 45406  53.0560 323.9633 0001045  71.9240 288.1863 15.06395956311484
STARLINK-1278,45408,53.0542,0.0003307,15.33935545,461.82132415480464,466.34676915506134,1 45408U 20019BA  25311.52306913  .00078607  00000+0  23473-2 0  9992,2 45408  53.0542 351.5147 0003307  13.9786 346.1306 15.33935545311084
STARLINK-1296,45412,53.0534,0.0001625,15.06405939,546.0679896356323,548.3187220012742,1 45412U 20019BE  25311.36954654  .00002432  00000+0  18211-3 0  9998,2 45412  53.0534 325.7363 0001625  87.1134 273.0041 15.06405939311425
STARLINK-1298,45413,53.0478,0.0008837,15.54088122,398.81055667487453,410.7987277333059,1 45413U 20019BF  25311.26555920  .00051915  00000+0  78734-3 0  9997,2 45413  53.0478 300.0706 0008837 346.5722  13.5051 15.54088122311878
STARLINK-1309,45414,53.0548,0.0001483,15.06398952,546.1877402417231,548.2417995766773,1 45414U 20019BG  25311.45063951  .00001565  00000+0  12393-3 0  9992,2 45414  53.0548 325.3708 0001483 105.2273 254.8880 15.06398952311423
STARLINK-1316,45415,53.0542,0.0001381,15.06406076,546.236547871822,548.1493240001273,1 45415U 20019BH  25311.74182558  .00003701  00000+0  26716-3 0  9998,2 45415  53.0542 324.0624 0001381  81.4027 278.7118 15.06406076311505
STARLINK-1318,45416,53.0513,0.0005656,15.61166675,380.4610720337769,388.11072481647534,1 45416U 20019BJ  25311.66807175  .00071310  00000+0  82659-3 0  9998,2 45416  53.0513 289.2704 0005656  58.6749 301.4817 15.61166675311971
STARLINK-1286,45417,53.0541,0.0001884,15.36265619,455.87606894392684,458.45161030029703,1 45417U 20019BK  25311.81199650  .00093042  00000+0  25729-2 0  9998,2 45417  53.0541 350.5829 0001884  49.8287 310.2880 15.36265619311395
STARLINK-1308,45419,53.0538,0.000136,15.0638803,546.3063921139583,548.1900969004637,1 45419U 20019BM  25311.44419244  .00002598  00000+0  19331-3 0  9992,2 45419  53.0538 355.3986 0001360 105.6576 254.4563 15.06388030311040
STARLINK-1329,45531,53.0545,0.0001315,15.06397963,546.3071169005916,548.1284852132694,1 45531U 20025A   25311.67824155  .00002038  00000+0  15569-3 0  9998,2 45531  53.0545 294.3498 0001315  91.9067 268.2073 15.06397963306706
STARLINK-1338,45532,53.0555,0.0001483,15.06392941,546.2061604414812,548.2602252406778,1 45532U 20025B   25311.22487683  .00001435  00000+0  11523-3 0  9997,2 45532  53.0555 296.3822 0001483  94.8559 265.2599 15.06392941306638
STARLINK-1350,45535,53.0738,0.0002132,15.32508737,466.87058574853927,469.7899193850335,1 45535U 20025E   25311.52903501  .00022456  00000+0  71492-3 0  9992,2 45535  53.0738 245.3290 0002132  73.3854 286.7380 15.32508737307402
STARLINK-1362,45538,53.0562,0.000166,15.06399598,546.0631819455111,548.3623980757948,1 45538U 20025H   25311.25706177 -.00000251  00000+0  20505-5 0  9996,2 45538  53.0562 295.9590 0001660  94.0531 266.0647 15.06399598306647
STARLINK-1368,45540,53.0561,0.0001489,15.06392212,546.2042391850337,548.2666150938358,1 45540U 20025K   25311.65980971 -.00001592  00000+0 -88005-4 0  9997,2 45540  53.0561 294.4327 0001489  95.7562 264.3597 15.06392212306698
STARLINK-1371,45542,53.0552,0.0001383,15.06400269,546.2529579005995,548.1685090836836,1 45542U 20025M   25311.69667132  .00000975  00000+0  84370-4 0  9997,2 45542  53.0552 294.2653 0001383  91.4496 268.6651 15.06400269306704
STARLINK-1372,45543,53.0556,0.0001506,15.06397453,546.176405469002,548.262322805881,1 45543U 20025N   25311.66718582  .00002011  00000+0  15385-3 0  9993,2 45543  53.0556 294.3993 0001506  94.8214 265.2947 15.06397453305798
STARLINK-1373,45544,53.0543,0.000144,15.064022,546.2075660419432,548.2020644847389,1 45544U 20025P   25311.68561287  .00002109  00000+0  16040-3 0  9991,2 45544  53.0543 294.3147 0001440  94.7087 265.4066 15.06402200306703
STARLINK-1294,45551,53.0477,0.0007996,15.6095362,379.4934957393707,390.30894646255456,1 45551U 20025W   25311.73327089  .00099093  00000+0  11510-2 0  9999,2 45551  53.0477 224.4557 0007996  78.6173 281.5738 15.60953620307696
STARLINK-1325,45554,53.0547,0.0002158,15.63305081,376.65972557785517,379.5757251173163,1 45554U 20025Z   25311.91668980  .00191096  00000+0  20005-2 0  9995,2 45554  53.0547 216.4138 0002158 151.5331  24.5688 15.63305081  5920
STARLINK-1327,45555,53.0548,0.000135,15.06384237,546.3249411068618,548.1947982616757,1 45555U 20025AA  25311.59161323 -.00011911  00000+0 -78243-3 0  9996,2 45555  53.0548 274.7362 0001350  94.2764 265.8380 15.06384237306968
STARLINK-1356,45564,53.0549,0.0001362,15.06381007,546.3265289574147,548.213009761389,1 45564U 20025AK  25311.86069529 -.00005735  00000+0 -36662-3 0  9997,2 45564  53.0549 273.5263 0001362  92.1947 267.9198 15.06381007307007
STARLINK-1357,45565,53.062,0.0008541,15.33603139,459.22791909718217,470.9174899144182,1 45565U 20025AL  25311.17322268  .00085021  00000+0  25603-2 0  9990,2 45565  53.0620 260.4278 0008541  34.7821 325.3736 15.33603139307132
STARLINK-1361,45567,53.055,0.000158,15.06423444,546.0455126670731,548.2339001062919,1 45567U 20025AN  25311.61371520  .00004668  00000+0  33187-3 0  9991,2 45567  53.0550 274.6353 0001580  77.8949 282.2217 15.06423444306977
STARLINK-1363,45568,53.0541,0.0003977,15.42690828,435.46073318414346,440.8824250279631,1 45568U 20025AP  25311.91668980  .00146401  00000+0  32509-2 0  9992,2 45568  53.0541 269.0578 0003977  94.7285 154.1253 15.42690828  5793
STARLINK-1366,45569,53.0524,0.0004126,15.41334585,439.35544801218384,444.98356494132895,1 45569U 20025AQ  25311.91668980  .00152256  00000+0  35342-2 0  9996,2 45569  53.0524 268.5760 0004126  89.7514 341.2691 15.41334585  5731
STARLINK-1376,45570,53.0562,0.0001649,15.06401396,546.0652901309677,548.3492686743148,1 45570U 20025AR  25311.61005127  .00000546  00000+0  55552-4 0  9994,2 45570  53.0562 274.6581 0001649  97.0236 263.0941 15.06401396306968
